OBJECT_NAME,OBJECT_ID,EPOCH,MEAN_MOTION,ECCENTRICITY,INCLINATION,RA_OF_ASC_NODE,ARG_OF_PERICENTER,MEAN_ANOMALY,EPHEMERIS_TYPE,CLASSIFICATION_TYPE,NORAD_CAT_ID,ELEMENT_SET_NO,REV_AT_EPOCH,BSTAR,MEAN_MOTION_DOT,MEAN_MOTION_DDOT
STARLINK-32261,2024-183X,2026-04-26T10:58:19.290144,15.30189915,.0001005,53.1597,280.7350,75.5186,284.5926,0,U,61530,999,8696,.50893E-5,-.208E-5,0
STARLINK-32358,2024-183Y,2026-04-26T12:00:02.000160,15.35227817,.0001365,53.1596,280.3194,96.7475,247.8632,0,U,61531,999,580,.51743E-1,.1983762E-1,0
STARLINK-11354 [DTC],2024-184A,2026-04-25T20:27:53.302464,15.69709643,.00008078,53.1584,3.8505,66.2146,293.8956,0,U,61532,999,8782,.5134284E-5,.34E-6,0
STARLINK-11323 [DTC],2024-184B,2026-04-25T23:17:04.752960,15.69745729,.00001305,53.1586,3.1584,156.5388,203.5636,0,U,61533,999,8784,.51224062E-4,.5632E-4,0
STARLINK-11338 [DTC],2024-184C,2026-04-25T23:24:11.516256,15.69704869,.00005243,53.1585,3.1934,16.6560,343.4475,0,U,61534,999,8784,.326785E-6,-.548E-5,0
STARLINK-11362 [DTC],2024-184D,2026-04-25T23:03:00.617184,15.69692219,.00010156,53.1577,3.0922,90.4294,269.6841,0,U,61535,999,8784,-.21182342E-4,-.3152E-4,0
STARLINK-11295 [DTC],2024-184E,2026-04-25T21:38:24.527328,15.69674267,.00004974,53.1599,3.4401,78.9240,281.1834,0,U,61536,999,8783,.5802922E-5,.115E-5,0
STARLINK-11325 [DTC],2024-184G,2026-04-26T09:30:39.899232,15.69706355,.0001036,53.1596,0.8327,83.1940,276.9196,0,U,61538,999,8791,-.77984E-5,-.1533E-4,0
STARLINK-11332 [DTC],2024-184H,2026-04-26T09:23:37.046400,15.69700455,.0000734,53.1585,0.8216,124.3588,235.7499,0,U,61539,999,8791,-.12035E-5,-.734E-5,0
STARLINK-11350 [DTC],2024-184J,2026-04-25T22:34:44.878080,15.69707835,.00005014,53.1597,2.9638,60.8436,299.2632,0,U,61540,999,8784,-.3492886E-5,-.1011E-4,0
STARLINK-11357 [DTC],2024-184K,2026-04-26T09:09:37.147680,15.69706583,.0000561,53.1600,1.4693,90.0488,270.0594,0,U,61541,999,8790,.14032E-5,-.418E-5,0
STARLINK-11322 [DTC],2024-184L,2026-04-26T09:02:33.600192,15.69706627,.0001326,53.1579,1.4348,64.2033,295.9121,0,U,61542,999,8896,.61097E-5,.151E-5,0
STARLINK-11364 [DTC],2024-184M,2026-04-25T22:13:43.826016,15.69680449,.00007442,53.1581,3.5972,99.6932,260.4170,0,U,61543,999,8783,-.25250259E-4,-.3642E-4,0
STARLINK-11349 [DTC],2024-184N,2026-04-25T20:34:57.120384,15.69710640,.0001024,53.1594,3.8776,89.7204,270.3931,0,U,61544,999,8782,.1411941E-4,.1122E-4,0
STARLINK-32406,2024-184P,2026-04-26T10:06:11.955744,15.30187529,.0001355,53.1611,152.3177,85.2505,274.8651,0,U,61545,999,8581,.1289E-4,.22E-6,0
STARLINK-32445,2024-184Q,2026-04-26T08:50:22.720992,15.30194463,.0001199,53.1586,152.7021,84.5203,275.5934,0,U,61546,999,8580,.10727E-3,.2819E-4,0
STARLINK-32411,2024-184R,2026-04-26T10:01:38.344224,15.30194724,.0001262,53.1594,152.2970,74.3034,285.8106,0,U,61547,999,8581,-.35468E-4,-.1409E-4,0
STARLINK-32424,2024-184S,2026-04-26T08:45:49.216608,15.30194086,.0001214,53.1599,152.6822,82.5808,277.5331,0,U,61548,999,8580,.74616E-4,.1851E-4,0
STARLINK-32389,2024-184T,2026-04-26T09:57:05.042880,15.30186077,.0001329,53.1594,152.2819,75.8493,284.2655,0,U,61549,999,8581,-.6319E-5,-.546E-5,0
STARLINK-32476,2024-184U,2026-04-26T08:41:17.632032,15.30159058,.0001016,53.1594,152.6614,81.8541,278.2575,0,U,61550,999,8580,.23357E-3,.6556E-4,0
STARLINK-32366,2024-184V,2026-04-26T08:54:56.099232,15.30188225,.0001146,53.1599,152.7232,83.2211,276.8920,0,U,61551,999,8580,.60928E-4,.1445E-4,0
QIANFAN-19,2024-185A,2026-04-26T12:00:35.200224,14.14436434,.0004922,88.9830,62.4733,217.5066,142.5778,0,U,61552,999,8871,.25412E-3,.5E-5,0
QIANFAN-20,2024-185B,2026-04-26T11:39:44.816832,14.08984064,.0003506,88.9826,62.9337,285.1630,74.9165,0,U,61553,999,8846,.3136E-3,.556E-5,0
QIANFAN-21,2024-185C,2026-04-26T12:13:21.400608,14.22797368,.000832,88.9749,61.1692,291.6288,68.4017,0,U,61554,999,8913,.29777E-3,.682E-5,0
QIANFAN-22,2024-185D,2026-04-26T11:20:05.726400,13.86368664,.0004998,88.9809,64.4604,324.2171,35.8665,0,U,61555,999,8760,.24933E-3,.302E-5,0
QIANFAN-23,2024-185E,2026-04-26T11:56:02.635008,14.16455611,.0005259,88.9823,62.2201,233.2873,126.7832,0,U,61556,999,8882,.30138E-3,.613E-5,0
QIANFAN-24,2024-185F,2026-04-26T11:14:29.029056,14.24005884,.0007346,88.9807,61.4091,206.7638,153.3176,0,U,61557,999,8919,.32189E-3,.753E-5,0
QIANFAN-25,2024-185G,2026-04-26T12:25:41.890944,14.06036923,.0007453,88.9813,62.9113,267.2005,92.8324,0,U,61558,999,8844,.19156E-3,.328E-5,0
QIANFAN-26,2024-185H,2026-04-26T12:47:46.478976,13.77889421,.0005115,88.9815,65.1774,348.3316,11.7731,0,U,61559,999,8723,.2836E-3,.297E-5,0
QIANFAN-27,2024-185J,2026-04-26T11:35:36.777984,14.27496307,.0006458,88.9818,61.1231,188.3402,171.7686,0,U,61560,999,8938,.21503E-3,.543E-5,0
