STARLINK-32261          
1 61530U 24183X   26116.45716771 -.00000208  00000+0  50893-5 0  9997
2 61530  53.1597 280.7350 0001005  75.5186 284.5926 15.30189915 86967
STARLINK-32358          
1 61531U 24183Y   26116.50002315  .01983762  00000+0  51743-1 0  9992
2 61531  53.1596 280.3194 0001365  96.7475 247.8632 15.35227817  5803
STARLINK-11354 [DTC]    
1 61532U 24184A   26115.85270026  .00000034  00000+0  51343-5 0  9998
2 61532  53.1584   3.8505 0000807  66.2146 293.8956 15.69709643 87823
STARLINK-11323 [DTC]    
1 61533U 24184B   26115.97019390  .00005632  00000+0  51224-4 0  9993
2 61533  53.1586   3.1584 0000130 156.5388 203.5636 15.69745729 87846
STARLINK-11338 [DTC]    
1 61534U 24184C   26115.97513329 -.00000548  00000+0  32678-6 0  9991
2 61534  53.1585   3.1934 0000524  16.6560 343.4475 15.69704869 87845
STARLINK-11362 [DTC]    
1 61535U 24184D   26115.96042381 -.00003152  00000+0 -21182-4 0  9997
2 61535  53.1577   3.0922 0001015  90.4294 269.6841 15.69692219 87844
STARLINK-11295 [DTC]    
1 61536U 24184E   26115.90167277  .00000115  00000+0  58029-5 0  9999
2 61536  53.1599   3.4401 0000497  78.9240 281.1834 15.69674267 87833
STARLINK-11325 [DTC]    
1 61538U 24184G   26116.39629513 -.00001533  00000+0 -77984-5 0  9999
2 61538  53.1596   0.8327 0001036  83.1940 276.9196 15.69706355 87911
STARLINK-11332 [DTC]    
1 61539U 24184H   26116.39140100 -.00000734  00000+0 -12035-5 0  9998
2 61539  53.1585   0.8216 0000734 124.3588 235.7499 15.69700455 87911
STARLINK-11350 [DTC]    
1 61540U 24184J   26115.94079720 -.00001011  00000+0 -34929-5 0  9994
2 61540  53.1597   2.9638 0000501  60.8436 299.2632 15.69707835 87840
STARLINK-11357 [DTC]    
1 61541U 24184K   26116.38167995 -.00000418  00000+0  14032-5 0  9998
2 61541  53.1600   1.4693 0000561  90.0488 270.0594 15.69706583 87909
STARLINK-11322 [DTC]    
1 61542U 24184L   26116.37677778  .00000151  00000+0  61097-5 0  9999
2 61542  53.1579   1.4348 0001326  64.2033 295.9121 15.69706627 88969
STARLINK-11364 [DTC]    
1 61543U 24184M   26115.92620169 -.00003642  00000+0 -25250-4 0  9992
2 61543  53.1581   3.5972 0000744  99.6932 260.4170 15.69680449 87831
STARLINK-11349 [DTC]    
1 61544U 24184N   26115.85760556  .00001122  00000+0  14119-4 0  9991
2 61544  53.1594   3.8776 0001024  89.7204 270.3931 15.69710640 87826
STARLINK-32406          
1 61545U 24184P   26116.42097171  .00000022  00000+0  12890-4 0  9994
2 61545  53.1611 152.3177 0001355  85.2505 274.8651 15.30187529 85811
STARLINK-32445          
1 61546U 24184Q   26116.36831853  .00002819  00000+0  10727-3 0  9993
2 61546  53.1586 152.7021 0001199  84.5203 275.5934 15.30194463 85804
STARLINK-32411          
1 61547U 24184R   26116.41780491 -.00001409  00000+0 -35468-4 0  9997
2 61547  53.1594 152.2970 0001262  74.3034 285.8106 15.30194724 85818
STARLINK-32424          
1 61548U 24184S   26116.36515297  .00001851  00000+0  74616-4 0  9999
2 61548  53.1599 152.6822 0001214  82.5808 277.5331 15.30194086 85809
STARLINK-32389          
1 61549U 24184T   26116.41464170 -.00000546  00000+0 -63190-5 0  9997
2 61549  53.1594 152.2819 0001329  75.8493 284.2655 15.30186077 85815
STARLINK-32476          
1 61550U 24184U   26116.36200963  .00006556  00000+0  23357-3 0  9995
2 61550  53.1594 152.6614 0001016  81.8541 278.2575 15.30159058 85800
STARLINK-32366          
1 61551U 24184V   26116.37148263  .00001445  00000+0  60928-4 0  9999
2 61551  53.1599 152.7232 0001146  83.2211 276.8920 15.30188225 85803
QIANFAN-19              
1 61552U 24185A   26116.50040741  .00000500  00000+0  25412-3 0  9997
2 61552  88.9830  62.4733 0004922 217.5066 142.5778 14.14436434 88718
QIANFAN-20              
1 61553U 24185B   26116.48593538  .00000556  00000+0  31360-3 0  9992
2 61553  88.9826  62.9337 0003506 285.1630  74.9165 14.08984064 88464
QIANFAN-21              
1 61554U 24185C   26116.50927547  .00000682  00000+0  29777-3 0  9996
2 61554  88.9749  61.1692 0008320 291.6288  68.4017 14.22797368 89138
QIANFAN-22              
1 61555U 24185D   26116.47228850  .00000302  00000+0  24933-3 0  9992
2 61555  88.9809  64.4604 0004998 324.2171  35.8665 13.86368664 87605
QIANFAN-23              
1 61556U 24185E   26116.49725272  .00000613  00000+0  30138-3 0  9994
2 61556  88.9823  62.2201 0005259 233.2873 126.7832 14.16455611 88824
QIANFAN-24              
1 61557U 24185F   26116.46839154  .00000753  00000+0  32189-3 0  9990
2 61557  88.9807  61.4091 0007346 206.7638 153.3176 14.24005884 89198
QIANFAN-25              
1 61558U 24185G   26116.51784596  .00000328  00000+0  19156-3 0  9993
2 61558  88.9813  62.9113 0007453 267.2005  92.8324 14.06036923 88443
QIANFAN-26              
1 61559U 24185H   26116.53317684  .00000297  00000+0  28360-3 0  9998
2 61559  88.9815  65.1774 0005115 348.3316  11.7731 13.77889421 87237
QIANFAN-27              
1 61560U 24185J   26116.48306456  .00000543  00000+0  21503-3 0  9995
2 61560  88.9818  61.1231 0006458 188.3402 171.7686 14.27496307 89382
